HULIANWANG DIGUI-124    
1 67064U 25295F   26194.42765611 -.00000097  00000+0  58633-4 0  9995
2 67064  50.0003 291.2309 0001133 183.9332 176.1531 13.29328973 28995
HULIANWANG DIGUI-125    
1 67065U 25295G   26194.49441726 -.00000094  00000+0  65599-4 0  9997
2 67065  49.9997 290.9015 0001091 183.4165 176.6700 13.29329608 29009
HULIANWANG DIGUI-126    
1 67066U 25295H   26194.63637530 -.00000092  00000+0  68027-4 0  9991
2 67066  50.0008 290.3225 0001119 179.5708 180.5165 13.29322712 29023
HULIANWANG DIGUI-127    
1 67067U 25295J   26194.62798828 -.00000080  00000+0  94600-4 0  9992
2 67067  50.0012 290.3130 0001104 182.6774 177.4092 13.29330783 29027
HULIANWANG DIGUI-128    
1 67236U 25311A   26194.80043053 -.00000093  00000+0  67774-4 0  9998
2 67236  50.0096  20.1084 0000944  69.9263 290.1710 13.29323755 26887
HULIANWANG DIGUI-129    
1 67237U 25311B   26194.73353419 -.00000105  00000+0  40802-4 0  9998
2 67237  50.0087  20.4030 0000892  69.6736 290.4232 13.29324865 26870
HULIANWANG DIGUI-130    
1 67238U 25311C   26194.78371234 -.00000097  00000+0  57780-4 0  9992
2 67238  50.0067  20.6253 0000983  67.7489 292.3488 13.29323652 26870
HULIANWANG DIGUI-131    
1 67239U 25311D   26194.79207811 -.00000112  00000+0  25315-4 0  9990
2 67239  50.0065  20.6609 0000999  68.2761 291.8218 13.29323332 26870
HULIANWANG DIGUI-132    
1 67240U 25311E   26194.76698536 -.00000107  00000+0  36300-4 0  9997
2 67240  50.0076  20.5518 0000936  67.1380 292.9591 13.29324179 26874
HULIANWANG DIGUI-133    
1 67241U 25311F   26194.75030464 -.00000119  00000+0  11885-4 0  9991
2 67241  50.0119  20.5394 0000925  68.0558 292.0412 13.29324004 26870
HULIANWANG DIGUI-134    
1 67242U 25311G   26194.75862676 -.00000110  00000+0  30948-4 0  9992
2 67242  50.0049  20.4676 0000941  68.2050 291.8922 13.29323861 26875
HULIANWANG DIGUI-135    
1 67243U 25311H   26194.77533757 -.00000113  00000+0  23283-4 0  9997
2 67243  50.0036  20.5300 0000969  67.1138 292.9837 13.29323610 26871
HULIANWANG DIGUI-136    
1 67244U 25311J   26194.74190876 -.00000100  00000+0  50923-4 0  9993
2 67244  50.0106  20.4764 0000872  70.8361 289.2606 13.29324518 26876
HULIANWANG DIGUI-137    
1 67435U 26007A   26194.69422084 -.00000122  00000+0  41778-5 0  9994
2 67435  50.0097 350.7898 0000903 109.2046 250.8923 13.29326896 24310
HULIANWANG DIGUI-138    
1 67436U 26007B   26194.71095748 -.00000114  00000+0  22624-4 0  9990
2 67436  50.0075 350.8456 0000902 110.8160 249.2809 13.29325280 24313
HULIANWANG DIGUI-139    
1 67437U 26007C   26194.77761652 -.00000098  00000+0  55378-4 0  9994
2 67437  50.0048 350.4884 0000894  99.4940 260.6033 13.29328387 24321
